{"spkid": "50893793", "covariance": {"labels": ["e", "q", "tp", "node", "peri", "i"], "data": [["2.315812269322314E-15", "-1.758225910945108E-15", "-2.078517950234926E-13", "4.715453506019587E-14", "-1.504760057499346E-13", "1.431810651629918E-13"], ["-1.758225910945108E-15", "1.341596987001583E-15", "1.494603033393191E-13", "-4.469804990115968E-14", "1.117294793137634E-13", "-1.035005251611998E-13"], ["-2.078517950234926E-13", "1.494603033393191E-13", "3.101374360892123E-10", "8.442221505227042E-11", "1.386972331342024E-10", "-5.994788672934652E-11"], ["4.715453506019587E-14", "-4.469804990115968E-14", "8.442221505227042E-11", "3.685785605915616E-10", "-3.023624165311406E-10", "-1.439766765754671E-10"], ["-1.504760057499346E-13", "1.117294793137634E-13", "1.386972331342024E-10", "-3.023624165311406E-10", "4.037247818198185E-10", "1.017266671652211E-10"], ["1.431810651629918E-13", "-1.035005251611998E-13", "-5.994788672934652E-11", "-1.439766765754671E-10", "1.017266671652211E-10", "9.01311444827668E-11"]], "elements": [{"name": "e", "sigma": 4.81228871673585e-08, "value": ".4024583013018709", "title": "eccentricity", "units": null, "label": "e"}, {"label": "q", "title": "perihelion distance", "value": ".4350814191765225", "units": "au", "name": "q", "sigma": 3.6627817120347e-08}, {"name": "tp", "sigma": 1.76107193518383e-05, "value": "2459164.363562096751", "title": "time of perihelion passage", "units": "TDB", "label": "tp"}, {"name": "om", "sigma": 1.91983999487343e-05, "units": "deg", "value": "269.6618125671793", "title": "longitude of the ascending node", "label": "node"}, {"label": "peri", "units": "deg", "title": "argument of perihelion", "value": "344.355750865159", "name": "w", "sigma": 2.00929037677439e-05}, {"label": "i", "sigma": 9.49374238552778e-06, "name": "i", "units": "deg", "value": "6.133964595788989", "title": "inclination"}], "epoch": "2459070.5"}, "elements": [{"name": "e", "sigma": "4.7487E-8", "title": "eccentricity", "value": ".4027853777958741", "units": null, "label": "e"}, {"label": "a", "name": "a", "sigma": "3.6261E-9", "value": ".7278522543233734", "title": "semi-major axis", "units": "au"}, {"label": "q", "units": "au", "value": ".4346840090861548", "title": "perihelion distance", "sigma": "3.5658E-8", "name": "q"}, {"label": "i", "value": "6.130156049165559", "title": "inclination; angle with respect to x-y ecliptic plane", "units": "deg", "sigma": "9.4857E-6", "name": "i"}, {"name": "om", "sigma": "1.9217E-5", "units": "deg", "title": "longitude of the ascending node", "value": "269.6253108182629", "label": "node"}, {"label": "peri", "name": "w", "sigma": "2.0129E-5", "title": "argument of perihelion", "value": "344.452099814779", "units": "deg"}, {"label": "M", "units": "deg", "value": "350.2332752469908", "title": "mean anomaly", "sigma": "4.0465E-5", "name": "ma"}, {"sigma": "2.5524E-5", "name": "tp", "value": "2461206.653323130011", "title": "time of perihelion passage", "units": "TDB", "label": "tp"}, {"label": "period", "units": "d", "title": "sidereal orbital period", "value": "226.810561659526", "name": "per", "sigma": "1.6949E-6"}, {"units": "deg/d", "title": "mean motion", "value": "1.587227673023489", "name": "n", "sigma": "1.1861E-8", "label": "n"}, {"label": "Q", "name": "ad", "sigma": "5.0866E-9", "value": "1.021020499560592", "title": "aphelion distance", "units": "au"}], "epoch": "2461200.5"}